GLOBALSTAR M063         
1 26081U 00008A   25248.28492877 -.00000042  00000+0  58921-3 0  9997
2 26081  51.9932 260.6251 0004630 110.5643 262.6051 11.86175795167087
GLOBALSTAR M062         
1 26082U 00008B   25248.17177492 -.00000073  00000+0  18047-3 0  9998
2 26082  51.9829 220.5709 0007056 284.5589  87.7607 12.43471652506571
GLOBALSTAR M060         
1 26083U 00008C   25248.28583372 -.00000053  00000+0  37302-3 0  9992
2 26083  52.0007 191.5744 0003293 294.6625 232.5094 12.17665973162121
GLOBALSTAR M064         
1 26084U 00008D   25248.29028948 -.00000066  00000+0  24142-3 0  9999
2 26084  52.0066 358.4928 0001493 185.8838 174.1977 11.88535610176624
GLOBALSTAR M065         
1 31571U 07020A   25248.29118374 -.00000095  00000+0  48511-4 0  9999
2 31571  51.9921 342.4564 0010674 124.9567 269.7574 12.62010379843529
GLOBALSTAR M069         
1 31573U 07020C   25248.22645809 -.00000046  00000+0  42814-3 0  9997
2 31573  52.0063 338.6728 0001024 277.3993 117.4868 12.23461533843922
GLOBALSTAR M072         
1 31574U 07020D   25248.13527814 -.00000071  00000+0  17355-3 0  9993
2 31574  51.9919 139.1296 0001527  94.9380  57.6769 11.91651405840998
GLOBALSTAR M071         
1 31576U 07020F   25247.73398527 -.00000066  00000+0  24842-3 0  9990
2 31576  52.0091   7.9263 0000265 206.0774 304.5621 12.18257846504630
